NORAD_CAT_ID,OBJECT_NAME,OBJECT_TYPE,EPOCH,MEAN_MOTION,ECCENTRICITY,INCLINATION,RA_OF_ASC_NODE,ARG_OF_PERICENTER,MEAN_ANOMALY,BSTAR,MEAN_MOTION_DOT,MEAN_MOTION_DDOT,TLE_LINE0,TLE_LINE1,TLE_LINE2,SEMIMAJOR_AXIS,PERIOD,APOGEE,PERIGEE,DECAYED
55674.0,STARLINK-5462,PAYLOAD,2023-11-01 01:24:49,14.98335987,0.0002719,70.0001,171.751,268.5777,91.5071,2.4525e-05,2e-06,0.0,0 STARLINK-5462,1 55674U 23021AY  23305.05891062  .00000200  00000-0  24525-4 0  9993,2 55674  70.0001 171.7510 0002719 268.5777  91.5071 14.98335987 40228,6950.174,96.107,573.929,570.15,0.0
55674.0,STARLINK-5462,PAYLOAD,2023-11-01 14:13:54,14.98328653,0.0002598,70.0004,170.4045,268.7333,91.3529,6.9041e-05,7.31e-06,0.0,0 STARLINK-5462,1 55674U 23021AY  23305.59299372  .00000731  00000-0  69041-4 0  9999,2 55674  70.0004 170.4045 0002598 268.7333  91.3529 14.98328653 40605,6950.197,96.107,573.868,570.256,0.0
55674.0,STARLINK-5462,PAYLOAD,2023-11-01 20:38:26,14.98327546,0.0002635,70.0005,169.7312,263.6643,96.4216,8.1528e-05,8.8e-06,0.0,0 STARLINK-5462,1 55674U 23021AY  23305.86003404  .00000880  00000-0  81528-4 0  9997,2 55674  70.0005 169.7312 0002635 263.6643  96.4216 14.98327546 40344,6950.2,96.107,573.897,570.234,0.0
55674.0,STARLINK-5462,PAYLOAD,2023-11-01 22:14:34,14.98331717,0.0002565,70.0005,169.5627,264.452,95.6346,2.0005e-05,1.46e-06,0.0,0 STARLINK-5462,1 55674U 23021AY  23305.92679341  .00000146  00000-0  20005-4 0  9991,2 55674  70.0005 169.5627 0002565 264.4520  95.6346 14.98331717 40650,6950.188,96.107,573.835,570.27,0.0
55674.0,STARLINK-5462,PAYLOAD,2023-11-02 07:51:23,14.98345287,0.0002646,70.0005,168.5532,267.6765,92.4091,-0.00023226,-2.864e-05,0.0,0 STARLINK-5462,1 55674U 23021AY  23306.32734978 -.00002864  00000-0 -23226-3 0  9992,2 55674  70.0005 168.5532 0002646 267.6765  92.4091 14.98345287 40413,6950.146,96.106,573.85,570.172,0.0
55674.0,STARLINK-5462,PAYLOAD,2023-11-02 22:16:35,14.98338614,0.0002403,70.0004,167.0381,270.235,89.8533,-5.7338e-05,-7.77e-06,0.0,0 STARLINK-5462,1 55674U 23021AY  23306.92819012 -.00000777  00000-0 -57338-4 0  9994,2 55674  70.0004 167.0381 0002403 270.2350  89.8533 14.98338614 40809,6950.166,96.106,573.701,570.361,0.0
55674.0,STARLINK-5462,PAYLOAD,2023-11-03 01:28:51,14.98334108,0.0002671,70.0004,166.7015,273.811,86.2743,2.8907e-05,2.52e-06,0.0,0 STARLINK-5462,1 55674U 23021AY  23307.06171032  .00000252  00000-0  28907-4 0  9999,2 55674  70.0004 166.7015 0002671 273.8110  86.2743 14.98334108 40526,6950.18,96.107,573.902,570.189,0.0
55674.0,STARLINK-5462,PAYLOAD,2023-11-03 07:53:23,14.9836228,0.00026,70.0006,166.0283,275.7403,84.3459,-0.00050189,-6.081e-05,0.0,0 STARLINK-5462,1 55674U 23021AY  23307.32874244 -.00006081  00000-0 -50189-3 0  9997,2 55674  70.0006 166.0283 0002600 275.7403  84.3459 14.98362280 40565,6950.093,96.105,573.765,570.151,0.0
55674.0,STARLINK-5462,PAYLOAD,2023-11-03 19:06:20,14.98330662,0.0002555,70.0005,164.8501,264.6065,95.4802,1.2253e-05,5.3e-07,0.0,0 STARLINK-5462,1 55674U 23021AY  23307.79607149  .00000053  00000-0  12253-4 0  9998,2 55674  70.0005 164.8501 0002555 264.6065  95.4802 14.98330662 40635,6950.191,96.107,573.832,570.28,0.0
55674.0,STARLINK-5462,PAYLOAD,2023-11-03 22:18:36,14.98331481,0.0002666,70.0004,164.5136,267.1458,92.9396,1.3914e-05,7.3e-07,0.0,0 STARLINK-5462,1 55674U 23021AY  23307.92959070  .00000073  00000-0  13914-4 0  9993,2 55674  70.0004 164.5136 0002666 267.1458  92.9396 14.98331481 40957,6950.188,96.107,573.906,570.2,0.0
55674.0,STARLINK-5462,PAYLOAD,2023-11-04 07:55:25,14.98331648,0.00026,70.0002,163.5034,267.5019,92.5843,-0.00013235,-1.672e-05,0.0,0 STARLINK-5462,1 55674U 23021AY  23308.33015405 -.00001672  00000-0 -13235-3 0  9997,2 55674  70.0002 163.5034 0002600 267.5019  92.5843 14.98331648 41012,6950.188,96.107,573.86,570.246,0.0
55674.0,STARLINK-5462,PAYLOAD,2023-11-04 20:44:29,14.98326251,0.0002628,70.0002,162.1557,265.1261,94.9598,-3.3757e-05,-4.96e-06,0.0,0 STARLINK-5462,1 55674U 23021AY  23308.86423586 -.00000496  00000-0 -33757-4 0  9993,2 55674  70.0002 162.1557 0002628 265.1261  94.9598 14.98326251 40791,6950.204,96.107,573.896,570.243,0.0
55674.0,STARLINK-5462,PAYLOAD,2023-11-04 22:20:38,14.98325907,0.0002649,70.0001,161.9875,265.6599,94.4257,-3.791e-05,-5.45e-06,0.0,0 STARLINK-5462,1 55674U 23021AY  23308.93099637 -.00000545  00000-0 -37910-4 0  9997,2 55674  70.0001 161.9875 0002649 265.6599  94.4257 14.98325907 41102,6950.206,96.107,573.912,570.229,0.0
55674.0,STARLINK-5462,PAYLOAD,2023-11-05 14:21:57,14.9834457,0.0002389,70.0001,160.306,271.1853,88.9033,0.00019852,2.277e-05,0.0,0 STARLINK-5462,1 55674U 23021AY  23309.59857932  .00002277  00000-0  19852-3 0  9996,2 55674  70.0001 160.3060 0002389 271.1853  88.9033 14.98344570 41205,6950.148,96.106,573.673,570.352,0.0
55674.0,STARLINK-5462,PAYLOAD,2023-11-05 20:46:29,14.98352615,0.0002575,69.999,159.6319,262.4486,97.6381,7.1069e-05,7.56e-06,0.0,0 STARLINK-5462,1 55674U 23021AY  23309.86561483  .00000756  00000-0  71069-4 0  9998,2 55674  69.9990 159.6319 0002575 262.4486  97.6381 14.98352615 40941,6950.123,96.106,573.778,570.198,0.0
55674.0,STARLINK-5462,PAYLOAD,2023-11-05 22:22:37,14.98348207,0.0002715,69.9992,159.4634,268.615,91.4698,0.00020022,2.298e-05,0.0,0 STARLINK-5462,1 55674U 23021AY  23309.93237431  .00002298  00000-0  20022-3 0  9994,2 55674  69.9992 159.4634 0002715 268.6150  91.4698 14.98348207 41253,6950.137,96.106,573.889,570.115,0.0
55674.0,STARLINK-5462,PAYLOAD,2023-11-06 07:59:25,14.98339686,0.0002292,70.0014,158.454,278.7131,81.3769,0.0001769,2.019e-05,0.0,0 STARLINK-5462,1 55674U 23021AY  23310.33293880  .00002019  00000-0  17690-3 0  9998,2 55674  70.0014 158.4540 0002292 278.7131  81.3769 14.98339686 41019,6950.163,96.106,573.621,570.435,0.0
55674.0,STARLINK-5462,PAYLOAD,2023-11-06 14:23:58,14.98328394,0.0002601,70.0001,157.7801,272.0078,88.0783,6.0137e-05,6.25e-06,0.0,0 STARLINK-5462,1 55674U 23021AY  23310.59998673  .00000625  00000-0  60137-4 0  9994,2 55674  70.0001 157.7801 0002601 272.0078  88.0783 14.98328394 41359,6950.198,96.107,573.871,570.255,0.0
55674.0,STARLINK-5462,PAYLOAD,2023-11-06 19:12:23,14.9832528,0.0002745,70.0,157.2756,272.331,87.7534,2.0303e-05,1.49e-06,0.0,0 STARLINK-5462,1 55674U 23021AY  23310.80026949  .00000149  00000-0  20303-4 0  9998,2 55674  70.0000 157.2756 0002745 272.3310  87.7534 14.98325280 41084,6950.207,96.107,573.98,570.165,0.0
55674.0,STARLINK-5462,PAYLOAD,2023-11-06 22:24:39,14.98327524,0.000272,69.9997,156.939,272.7598,87.325,2.9344e-05,2.57e-06,0.0,0 STARLINK-5462,1 55674U 23021AY  23310.93378833  .00000257  00000-0  29344-4 0  9998,2 55674  69.9997 156.9390 0002720 272.7598  87.3250 14.98327524 41401,6950.201,96.107,573.956,570.175,0.0
55674.0,STARLINK-5462,PAYLOAD,2023-11-07 14:26:00,14.98327772,0.0002638,69.9994,155.2558,273.5935,86.4922,-0.00017871,-2.224e-05,0.0,0 STARLINK-5462,1 55674U 23021AY  23311.60139461 -.00002224  00000-0 -17871-3 0  9994,2 55674  69.9994 155.2558 0002638 273.5935  86.4922 14.98327772 41500,6950.2,96.107,573.898,570.231,0.0
55674.0,STARLINK-5462,PAYLOAD,2023-11-07 19:14:24,14.98326871,0.0002683,69.9997,154.7517,267.7815,92.3037,-0.00020327,-2.517e-05,0.0,0 STARLINK-5462,1 55674U 23021AY  23311.80167559 -.00002517  00000-0 -20327-3 0  9990,2 55674  69.9997 154.7517 0002683 267.7815  92.3037 14.98326871 41236,6950.203,96.107,573.932,570.203,0.0
55674.0,STARLINK-5462,PAYLOAD,2023-11-08 14:28:01,14.98332922,0.0002613,69.9987,152.731,279.0702,81.0161,-8.8708e-05,-1.151e-05,0.0,0 STARLINK-5462,1 55674U 23021AY  23312.60279128 -.00001151  00000-0 -88708-4 0  9996,2 55674  69.9987 152.7310 0002613 279.0702  81.0161 14.98332922 41651,6950.184,96.107,573.865,570.233,0.0
55674.0,STARLINK-5462,PAYLOAD,2023-11-08 19:16:25,14.98322524,0.0002878,69.999,152.2261,273.9377,86.1453,4.869e-05,4.88e-06,0.0,0 STARLINK-5462,1 55674U 23021AY  23312.80307492  .00000488  00000-0  48690-4 0  9990,2 55674  69.9990 152.2261 0002878 273.9377  86.1453 14.98322524 41386,6950.216,96.107,574.081,570.081,0.0
55674.0,STARLINK-5462,PAYLOAD,2023-11-08 22:28:41,14.98324714,0.0002922,69.9989,151.8893,273.9249,86.1576,6.4146e-05,6.72e-06,0.0,0 STARLINK-5462,1 55674U 23021AY  23312.93659375  .00000672  00000-0  64146-4 0  9993,2 55674  69.9989 151.8893 0002922 273.9249  86.1576 14.98324714 41703,6950.209,96.107,574.105,570.043,0.0
55674.0,STARLINK-5462,PAYLOAD,2023-11-09 14:30:02,14.98324251,0.0003398,69.9981,150.2049,279.9385,80.139,0.0001275,1.428e-05,0.0,0 STARLINK-5462,1 55674U 23021AY  23313.60419497  .00001428  00000-0  12750-3 0  9990,2 55674  69.9981 150.2049 0003398 279.9385  80.1390 14.98324251 41801,6950.211,96.107,574.437,569.714,0.0
55674.0,STARLINK-5462,PAYLOAD,2023-11-09 19:18:26,14.98327015,0.0002976,69.9989,149.7011,273.1794,86.9025,0.00015846,1.798e-05,0.0,0 STARLINK-5462,1 55674U 23021AY  23313.80447307  .00001798  00000-0  15846-3 0  9992,2 55674  69.9989 149.7011 0002976 273.1794  86.9025 14.98327015 41532,6950.202,96.107,574.136,569.999,0.0
55674.0,STARLINK-5462,PAYLOAD,2023-11-09 22:30:42,14.98328508,0.0002967,69.9987,149.3643,273.8018,86.2802,0.0001689,1.923e-05,0.0,0 STARLINK-5462,1 55674U 23021AY  23313.93799214  .00001923  00000-0  16890-3 0  9993,2 55674  69.9987 149.3643 0002967 273.8018  86.2802 14.98328508 41852,6950.198,96.107,574.125,570.0,0.0
55674.0,STARLINK-5462,PAYLOAD,2023-11-10 14:32:02,14.98336797,0.0002964,69.9986,147.6807,272.7993,87.2827,0.00012673,1.42e-05,0.0,0 STARLINK-5462,1 55674U 23021AY  23314.60558773  .00001420  00000-0  12673-3 0  9998,2 55674  69.9986 147.6807 0002964 272.7993  87.2827 14.98336797 41959,6950.172,96.107,574.097,569.977,0.0
55674.0,STARLINK-5462,PAYLOAD,2023-11-10 19:20:26,14.98337741,0.0002961,69.9987,147.1758,272.7469,87.3351,0.00013194,1.482e-05,0.0,0 STARLINK-5462,1 55674U 23021AY  23314.80586624  .00001482  00000-0  13194-3 0  9993,2 55674  69.9987 147.1758 0002961 272.7469  87.3351 14.98337741 41688,6950.169,96.107,574.092,569.976,0.0
